[{"OBJECT_NAME":"RESURS-P 4","OBJECT_ID":"2024-061A","EPOCH":"2026-03-10T00:09:50.865408","MEAN_MOTION":15.32930455,"ECCENTRICITY":0.00024315,"INCLINATION":97.2654,"RA_OF_ASC_NODE":18.6595,"ARG_OF_PERICENTER":59.481,"MEAN_ANOMALY":300.6672,"EPHEMERIS_TYPE":0,"CLASSIFICATION_TYPE":"U","NORAD_CAT_ID":59371,"ELEMENT_SET_NO":999,"REV_AT_EPOCH":10857,"BSTAR":0.00016169192,"MEAN_MOTION_DOT":5.066e-5,"MEAN_MOTION_DDOT":0},{"OBJECT_NAME":"STARLINK-35143","OBJECT_ID":"2025-195AD","EPOCH":"2026-03-09T22:06:52.919712","MEAN_MOTION":15.30187095,"ECCENTRICITY":0.00010298,"INCLINATION":53.1596,"RA_OF_ASC_NODE":256.7631,"ARG_OF_PERICENTER":81.0421,"MEAN_ANOMALY":279.0696,"EPHEMERIS_TYPE":0,"CLASSIFICATION_TYPE":"U","NORAD_CAT_ID":65485,"ELEMENT_SET_NO":999,"REV_AT_EPOCH":3001,"BSTAR":0.0005235435,"MEAN_MOTION_DOT":0.00015172,"MEAN_MOTION_DDOT":0}]
